CCSDS_OMM_VERS = 2.0
CREATION_DATE  = 
ORIGINATOR     = 

OBJECT_NAME    = ALOS (DAICHI)
OBJECT_ID      = 2006-002A
CENTER_NAME    = EARTH
REF_FRAME      = TEME
TIME_SYSTEM    = UTC
MEAN_ELEMENT_THEORY = SGP/SGP4

EPOCH          = 2026-02-24T20:10:13.175328
MEAN_MOTION    = 14.69761698
ECCENTRICITY   = .0001468
INCLINATION    = 98.1196
RA_OF_ASC_NODE = 11.8628
ARG_OF_PERICENTER = 53.6816
MEAN_ANOMALY   = 306.4525

EPHEMERIS_TYPE = 0
CLASSIFICATION_TYPE = U
NORAD_CAT_ID   = 28931
ELEMENT_SET_NO = 999
REV_AT_EPOCH   = 7159
BSTAR          = .24068E-3
MEAN_MOTION_DOT = .1386E-4
MEAN_MOTION_DDOT = 0

CCSDS_OMM_VERS = 2.0
CREATION_DATE  = 
ORIGINATOR     = 

OBJECT_NAME    = H-2A R/B
OBJECT_ID      = 2006-002B
CENTER_NAME    = EARTH
REF_FRAME      = TEME
TIME_SYSTEM    = UTC
MEAN_ELEMENT_THEORY = SGP/SGP4

EPOCH          = 2026-02-24T09:51:09.247680
MEAN_MOTION    = 15.16107662
ECCENTRICITY   = .00520478
INCLINATION    = 98.2387
RA_OF_ASC_NODE = 201.2980
ARG_OF_PERICENTER = 286.8584
MEAN_ANOMALY   = 72.6943

EPHEMERIS_TYPE = 0
CLASSIFICATION_TYPE = U
NORAD_CAT_ID   = 28932
ELEMENT_SET_NO = 999
REV_AT_EPOCH   = 9242
BSTAR          = .4776759E-3
MEAN_MOTION_DOT = .9448E-4
MEAN_MOTION_DDOT = 0

CCSDS_OMM_VERS = 2.0
CREATION_DATE  = 
ORIGINATOR     = 

OBJECT_NAME    = RESURS-DK 1
OBJECT_ID      = 2006-021A
CENTER_NAME    = EARTH
REF_FRAME      = TEME
TIME_SYSTEM    = UTC
MEAN_ELEMENT_THEORY = SGP/SGP4

EPOCH          = 2026-02-24T13:47:38.163264
MEAN_MOTION    = 15.12652561
ECCENTRICITY   = .0002864
INCLINATION    = 69.9313
RA_OF_ASC_NODE = 270.9493
ARG_OF_PERICENTER = 174.2420
MEAN_ANOMALY   = 185.8779

EPHEMERIS_TYPE = 0
CLASSIFICATION_TYPE = U
NORAD_CAT_ID   = 29228
ELEMENT_SET_NO = 999
REV_AT_EPOCH   = 8554
BSTAR          = .13378E-3
MEAN_MOTION_DOT = .2237E-4
MEAN_MOTION_DDOT = 0

CCSDS_OMM_VERS = 2.0
CREATION_DATE  = 
ORIGINATOR     = 

OBJECT_NAME    = CZ-4B R/B
OBJECT_ID      = 2006-046C
CENTER_NAME    = EARTH
REF_FRAME      = TEME
TIME_SYSTEM    = UTC
MEAN_ELEMENT_THEORY = SGP/SGP4

EPOCH          = 2026-02-24T13:08:11.153184
MEAN_MOTION    = 15.16749127
ECCENTRICITY   = .0032118
INCLINATION    = 97.5623
RA_OF_ASC_NODE = 100.4911
ARG_OF_PERICENTER = 315.0764
MEAN_ANOMALY   = 44.7870

EPHEMERIS_TYPE = 0
CLASSIFICATION_TYPE = U
NORAD_CAT_ID   = 29507
ELEMENT_SET_NO = 999
REV_AT_EPOCH   = 5805
BSTAR          = .24683E-3
MEAN_MOTION_DOT = .4835E-4
MEAN_MOTION_DDOT = 0

CCSDS_OMM_VERS = 2.0
CREATION_DATE  = 
ORIGINATOR     = 

OBJECT_NAME    = CZ-2C R/B
OBJECT_ID      = 2007-010B
CENTER_NAME    = EARTH
REF_FRAME      = TEME
TIME_SYSTEM    = UTC
MEAN_ELEMENT_THEORY = SGP/SGP4

EPOCH          = 2026-02-24T08:10:06.412800
MEAN_MOTION    = 14.20241015
ECCENTRICITY   = .00583759
INCLINATION    = 98.3974
RA_OF_ASC_NODE = 169.2889
ARG_OF_PERICENTER = 334.0400
MEAN_ANOMALY   = 25.7852

EPHEMERIS_TYPE = 0
CLASSIFICATION_TYPE = U
NORAD_CAT_ID   = 31114
ELEMENT_SET_NO = 999
REV_AT_EPOCH   = 97782
BSTAR          = .75750042E-4
MEAN_MOTION_DOT = .123E-5
MEAN_MOTION_DDOT = 0

CCSDS_OMM_VERS = 2.0
CREATION_DATE  = 
ORIGINATOR     = 

OBJECT_NAME    = COSMO-SKYMED 1
OBJECT_ID      = 2007-023A
CENTER_NAME    = EARTH
REF_FRAME      = TEME
TIME_SYSTEM    = UTC
MEAN_ELEMENT_THEORY = SGP/SGP4

EPOCH          = 2026-02-24T19:50:01.136256
MEAN_MOTION    = 14.96427512
ECCENTRICITY   = .0001328
INCLINATION    = 97.8881
RA_OF_ASC_NODE = 246.7562
ARG_OF_PERICENTER = 83.4752
MEAN_ANOMALY   = 276.6620

EPHEMERIS_TYPE = 0
CLASSIFICATION_TYPE = U
NORAD_CAT_ID   = 31598
ELEMENT_SET_NO = 999
REV_AT_EPOCH   = 1298
BSTAR          = .26135E-3
MEAN_MOTION_DOT = .2904E-4
MEAN_MOTION_DDOT = 0

CCSDS_OMM_VERS = 2.0
CREATION_DATE  = 
ORIGINATOR     = 

OBJECT_NAME    = COSMOS 2428
OBJECT_ID      = 2007-029A
CENTER_NAME    = EARTH
REF_FRAME      = TEME
TIME_SYSTEM    = UTC
MEAN_ELEMENT_THEORY = SGP/SGP4

EPOCH          = 2026-02-24T12:12:07.404192
MEAN_MOTION    = 14.12942026
ECCENTRICITY   = .00083384
INCLINATION    = 70.9404
RA_OF_ASC_NODE = 231.0108
ARG_OF_PERICENTER = 291.2308
MEAN_ANOMALY   = 68.7922

EPHEMERIS_TYPE = 0
CLASSIFICATION_TYPE = U
NORAD_CAT_ID   = 31792
ELEMENT_SET_NO = 999
REV_AT_EPOCH   = 96223
BSTAR          = .11816969E-3
MEAN_MOTION_DOT = .172E-5
MEAN_MOTION_DDOT = 0

CCSDS_OMM_VERS = 2.0
CREATION_DATE  = 
ORIGINATOR     = 

OBJECT_NAME    = SL-16 R/B
OBJECT_ID      = 2007-029B
CENTER_NAME    = EARTH
REF_FRAME      = TEME
TIME_SYSTEM    = UTC
MEAN_ELEMENT_THEORY = SGP/SGP4

EPOCH          = 2026-02-24T20:34:36.908832
MEAN_MOTION    = 14.14835837
ECCENTRICITY   = .0002472
INCLINATION    = 70.9754
RA_OF_ASC_NODE = 199.3567
ARG_OF_PERICENTER = 280.6127
MEAN_ANOMALY   = 241.4154

EPHEMERIS_TYPE = 0
CLASSIFICATION_TYPE = U
NORAD_CAT_ID   = 31793
ELEMENT_SET_NO = 999
REV_AT_EPOCH   = 96355
BSTAR          = -.69651E-4
MEAN_MOTION_DOT = -.182E-5
MEAN_MOTION_DDOT = 0

CCSDS_OMM_VERS = 2.0
CREATION_DATE  = 
ORIGINATOR     = 

OBJECT_NAME    = KORONAS-FOTON
OBJECT_ID      = 2009-003A
CENTER_NAME    = EARTH
REF_FRAME      = TEME
TIME_SYSTEM    = UTC
MEAN_ELEMENT_THEORY = SGP/SGP4

EPOCH          = 2026-02-24T14:25:04.311840
MEAN_MOTION    = 15.42962560
ECCENTRICITY   = .0010076
INCLINATION    = 82.4297
RA_OF_ASC_NODE = 289.4831
ARG_OF_PERICENTER = 195.8718
MEAN_ANOMALY   = 164.2215

EPHEMERIS_TYPE = 0
CLASSIFICATION_TYPE = U
NORAD_CAT_ID   = 33504
ELEMENT_SET_NO = 999
REV_AT_EPOCH   = 94372
BSTAR          = .27968E-3
MEAN_MOTION_DOT = .12369E-3
MEAN_MOTION_DDOT = 0

CCSDS_OMM_VERS = 2.0
CREATION_DATE  = 
ORIGINATOR     = 

OBJECT_NAME    = CZ-2C R/B
OBJECT_ID      = 2011-030B
CENTER_NAME    = EARTH
REF_FRAME      = TEME
TIME_SYSTEM    = UTC
MEAN_ELEMENT_THEORY = SGP/SGP4

EPOCH          = 2026-02-24T10:45:59.822784
MEAN_MOTION    = 14.81162471
ECCENTRICITY   = .00536211
INCLINATION    = 97.8522
RA_OF_ASC_NODE = 12.9797
ARG_OF_PERICENTER = 34.8280
MEAN_ANOMALY   = 78.5792

EPHEMERIS_TYPE = 0
CLASSIFICATION_TYPE = U
NORAD_CAT_ID   = 37731
ELEMENT_SET_NO = 999
REV_AT_EPOCH   = 78813
BSTAR          = .21555626E-3
MEAN_MOTION_DOT = .1663E-4
MEAN_MOTION_DDOT = 0

CCSDS_OMM_VERS = 2.0
CREATION_DATE  = 
ORIGINATOR     = 

OBJECT_NAME    = H-2A R/B
OBJECT_ID      = 2012-025E
CENTER_NAME    = EARTH
REF_FRAME      = TEME
TIME_SYSTEM    = UTC
MEAN_ELEMENT_THEORY = SGP/SGP4

EPOCH          = 2026-02-24T11:27:21.373344
MEAN_MOTION    = 14.95037730
ECCENTRICITY   = .00447994
INCLINATION    = 98.4707
RA_OF_ASC_NODE = 21.4705
ARG_OF_PERICENTER = 357.9144
MEAN_ANOMALY   = 2.1880

EPHEMERIS_TYPE = 0
CLASSIFICATION_TYPE = U
NORAD_CAT_ID   = 38341
ELEMENT_SET_NO = 999
REV_AT_EPOCH   = 74624
BSTAR          = .3030948E-3
MEAN_MOTION_DOT = .3314E-4
MEAN_MOTION_DDOT = 0

CCSDS_OMM_VERS = 2.0
CREATION_DATE  = 
ORIGINATOR     = 

OBJECT_NAME    = SHIJIAN-16 (SJ-16)
OBJECT_ID      = 2013-057A
CENTER_NAME    = EARTH
REF_FRAME      = TEME
TIME_SYSTEM    = UTC
MEAN_ELEMENT_THEORY = SGP/SGP4

EPOCH          = 2026-02-24T19:46:58.187712
MEAN_MOTION    = 14.92278436
ECCENTRICITY   = .0016105
INCLINATION    = 74.9715
RA_OF_ASC_NODE = 209.4411
ARG_OF_PERICENTER = 145.5380
MEAN_ANOMALY   = 214.6856

EPHEMERIS_TYPE = 0
CLASSIFICATION_TYPE = U
NORAD_CAT_ID   = 39358
ELEMENT_SET_NO = 999
REV_AT_EPOCH   = 66958
BSTAR          = .72656E-4
MEAN_MOTION_DOT = .714E-5
MEAN_MOTION_DDOT = 0

